{"version": 0.6, "generator": "Overpass API 0.7.62.1 084b4234", "osm3s": {"timestamp_osm_base": "2024-04-03T20:08:31Z", "copyright": "The data included in this document is from www.openstreetmap.org. The data is made available under ODbL."}, "elements": [{"type": "node", "id": 1925037054, "lat": 40.384884, "lon": -3.7115159, "tags": {"name": "Joima", "shop": "toys"}}, {"type": "node", "id": 2133703313, "lat": 40.3938217, "lon": -3.7629334, "tags": {"addr:housenumber": "32", "addr:street": "Calle de Illescas", "name": "Modelismo maquetas 113", "shop": "toys"}}, {"type": "node", "id": 2269093755, "lat": 40.4752383, "lon": -3.649795, "tags": {"addr:city": "Madrid", "addr:housenumber": "41", "addr:postcode": "28033", "addr:street": "Avenida de la Virgen del Carmen", "name": "Jugueter\u00eda Lolita", "shop": "toys"}}, {"type": "node", "id": 2339960743, "lat": 40.3972395, "lon": -3.7710006, "tags": {"name": "Simpat\u00eda", "shop": "toys"}}, {"type": "node", "id": 2441572300, "lat": 40.4453972, "lon": -3.6344722, "tags": {"brand": "Lego", "brand:wikidata": "Q1063455", "brand:wikipedia": "en:The Lego Group", "name": "Lego", "shop": "toys"}}, {"type": "node", "id": 2475037925, "lat": 40.4027131, "lon": -3.7087729, "tags": {"check_date": "2023-06-17", "name": "Dideco", "shop": "toys"}}, {"type": "node", "id": 2568684641, "lat": 40.344928, "lon": -3.7129951, "tags": {"name": "Poli", "shop": "toys"}}, {"type": "node", "id": 2622900854, "lat": 40.4182479, "lon": -3.7043087, "tags": {"addr:city": "Madrid", "addr:housenumber": "15", "addr:postcode": "28013", "addr:street": "Calle del Carmen", "contact:website": "https://tienda.imaginarium.es/762582-juguetes-imaginarium-madrid-carmen", "name": "Imaginarium", "old_name": "Quino's Pizza", "shop": "toys", "source": "survey", "wheelchair": "no"}}, {"type": "node", "id": 2674522317, "lat": 40.4217137, "lon": -3.7085551, "tags": {"addr:city": "Madrid", "addr:housenumber": "55", "addr:postcode": "28013", "addr:street": "Gran V\u00eda", "contact:phone": "+34 91 053 63 32", "contact:website": "https://jugueteriapoly.es/", "name": "Poly", "old_name": "40 Caf\u00e9", "old_name_1": "Atresmedia Caf\u00e9", "shop": "toys"}}, {"type": "node", "id": 2703977248, "lat": 40.425534, "lon": -3.7038514, "tags": {"addr:city": "Madrid", "addr:housenumber": "28", "addr:postcode": "28004", "addr:street": "Calle del Esp\u00edritu Santo", "check_date": "2023-09-24", "name": "Mon Petit Retro", "shop": "toys", "wheelchair": "no"}}, {"type": "node", "id": 2928386056, "lat": 40.4895352, "lon": -3.6943228}, {"type": "node", "id": 2928386057, "lat": 40.4895369, "lon": -3.6941014, "tags": {"entrance": "yes", "wheelchair": "yes"}}, {"type": "node", "id": 2928386058, "lat": 40.4895394, "lon": -3.6937633}, {"type": "node", "id": 2928386060, "lat": 40.4898112, "lon": -3.6937688}, {"type": "node", "id": 2928386061, "lat": 40.4898112, "lon": -3.6944364}, {"type": "node", "id": 2928404102, "lat": 40.4825696, "lon": -3.7093509, "tags": {"addr:city": "Madrid", "addr:country": "ES", "addr:housenumber": "57", "addr:postcode": "28034", "addr:street": "Calle de Ferm\u00edn Caballero", "brand": "Generaci\u00f3n X", "email": "fermincaballero@generacionx.es", "name": "Generaci\u00f3n X", "phone": "+34 91 730 0168", "shop": "toys", "website": "https://www.generacionx.es/"}}, {"type": "node", "id": 3161138676, "lat": 40.3921841, "lon": -3.7256099, "tags": {"name": "jugueter\u00eda de ocasi\u00f3n", "shop": "toys", "wheelchair": "no"}}, {"type": "node", "id": 3209026361, "lat": 40.4093159, "lon": -3.7086761, "tags": {"addr:city": "Madrid", "addr:housenumber": "5", "addr:postcode": "28005", "addr:street": "Plaza General Vara del Rey", "name": "Hobby Antonio", "shop": "toys", "wheelchair": "no", "wheelchair:description": "Existe un escal\u00f3n"}}, {"type": "node", "id": 3429275102, "lat": 40.4196501, "lon": -3.7029838, "tags": {"addr:city": "Madrid", "addr:housenumber": "10", "addr:postcode": "28013", "addr:street": "Calle de la Salud", "name": "Bricks Madrid", "opening_hours": "Mo-Fr 11:00-14:00,16:00-21:00; Sa,Su 12:00-21:00", "shop": "toys"}}, {"type": "node", "id": 3557978056, "lat": 40.4393324, "lon": -3.6363287}, {"type": "node", "id": 3557978057, "lat": 40.4393343, "lon": -3.6363241}, {"type": "node", "id": 3557978084, "lat": 40.4394264, "lon": -3.6363968}, {"type": "node", "id": 3557978297, "lat": 40.43949, "lon": -3.6362485}, {"type": "node", "id": 3557978299, "lat": 40.4395201, "lon": -3.6362695}, {"type": "node", "id": 3558739634, "lat": 40.4394103, "lon": -3.6361412}, {"type": "node", "id": 3558739650, "lat": 40.439535, "lon": -3.6362328}, {"type": "node", "id": 3670172959, "lat": 40.4174912, "lon": -3.7072271, "tags": {"addr:city": "Madrid", "addr:housenumber": "20", "addr:postcode": "28013", "addr:street": "Calle del Arenal", "contact:phone": "+34 91 521 97 55", "contact:website": "https://tiendas-asi.com/", "name": "Tiendas As\u00ed", "shop": "toys"}}, {"type": "node", "id": 4109389246, "lat": 40.4640166, "lon": -3.6962008, "tags": {"addr:housenumber": "329", "addr:street": "Calle de Bravo Murillo", "contact:phone": "+34 91 571 95 37", "contact:website": "http://www.partytuyyo.com", "name": "Party tu y yo", "shop": "toys", "wheelchair": "yes", "wheelchair:description": "quitar obstaculo"}}, {"type": "node", "id": 4234288390, "lat": 40.4454698, "lon": -3.6684188, "tags": {"shop": "toys"}}, {"type": "node", "id": 4304405042, "lat": 40.4813618, "lon": -3.719479, "tags": {"name": "Bego", "shop": "toys"}}, {"type": "node", "id": 4309734475, "lat": 40.4897709, "lon": -3.6944198}, {"type": "node", "id": 4309734476, "lat": 40.4898112, "lon": -3.6941219}, {"type": "node", "id": 4374465572, "lat": 40.4351983, "lon": -3.7121826, "tags": {"addr:city": "Madrid", "addr:housenumber": "57", "addr:postcode": "28015", "addr:street": "Calle de Fern\u00e1ndez de los R\u00edos", "name": "Zacatrus!", "opening_hours": "Mo-Sa 10:00-21:00", "phone": "+34 917 87 56 91", "shop": "toys", "website": "https://zacatrus.es/"}}, {"type": "node", "id": 4417323860, "lat": 40.4339734, "lon": -3.7078835, "tags": {"contact:phone": "+34 447 33 90", "contact:website": "http://www.partytuyyo.com", "name": "Party tu y yo", "shop": "toys"}}, {"type": "node", "id": 4621851020, "lat": 40.4473778, "lon": -3.5871177, "tags": {"level": "0", "name": "Imaginarium", "shop": "toys", "source": "survey"}}, {"type": "node", "id": 4621865346, "lat": 40.4466256, "lon": -3.587763, "tags": {"brand": "Juguettos", "brand:wikidata": "Q105339592", "level": "0", "name": "Juguettos", "shop": "toys", "source": "survey"}}, {"type": "node", "id": 4621865353, "lat": 40.4474961, "lon": -3.5874881, "tags": {"level": "0", "name": "Poly", "shop": "toys", "source": "survey"}}, {"type": "node", "id": 4677022774, "lat": 40.4080488, "lon": -3.7098926, "tags": {"addr:city": "Madrid", "addr:housenumber": "14", "addr:postcode": "28005", "addr:street": "Calle de la Arganzuela", "contact:phone": "+34 619901775", "contact:website": "http://www.galaxysaurio.es/", "name": "Galaxysaurio", "shop": "toys"}}, {"type": "node", "id": 4725967130, "lat": 40.4109472, "lon": -3.6982726, "tags": {"addr:city": "Madrid", "addr:housenumber": "11", "addr:postcode": "28012", "addr:street": "Calle de Santa Isabel", "contact:facebook": "https://es-es.facebook.com/WonderlandTiendaMadrid/", "contact:phone": "+34 911 13 05 30", "name": "Wonderland", "shop": "toys", "wheelchair": "no"}}, {"type": "node", "id": 4738041539, "lat": 40.4297624, "lon": -3.7029045, "tags": {"addr:city": "Madrid", "addr:housenumber": "115", "addr:postcode": "28010", "addr:street": "Calle de Fuencarral", "contact:website": "http://www.toylandia.net/", "name": "Toylandia", "shop": "toys"}}, {"type": "node", "id": 4778747538, "lat": 40.4223931, "lon": -3.6975797, "tags": {"addr:city": "Madrid", "addr:housenumber": "26", "addr:postcode": "28004", "addr:street": "Calle de Barbieri", "contact:phone": "+34 91 532 74 64", "contact:website": "https://www.zigzagkids.es/", "name": "Zigzag", "shop": "toys"}}, {"type": "node", "id": 4816066524, "lat": 40.4259408, "lon": -3.6983107, "tags": {"addr:housenumber": "28", "addr:postcode": "28004", "addr:street": "Calle de San Mateo", "name": "Lobo Feliz", "shop": "toys"}}, {"type": "node", "id": 4860241223, "lat": 40.4350967, "lon": -3.7005136, "tags": {"addr:housenumber": "1", "addr:postcode": "28010", "addr:street": "Calle de la Sant\u00edsima Trinidad", "email": "bazar@matey.com", "name": "Bazar Matey", "name:es": "Bazar Matey", "phone": "+34 914469311", "shop": "toys", "website": "https://www.matey.com/"}}, {"type": "node", "id": 4885020986, "lat": 40.4209905, "lon": -3.6849462, "tags": {"addr:city": "Madrid", "addr:country": "ES", "addr:housenumber": "91", "addr:postcode": "28001", "addr:street": "Calle de Alcal\u00e1", "name": "Baby Deli", "shop": "toys", "source": "survey"}}, {"type": "node", "id": 5304582521, "lat": 40.4797278, "lon": -3.7062201, "tags": {"brand": "Lego", "brand:wikidata": "Q1063455", "brand:wikipedia": "en:The Lego Group", "level": "0", "name": "Lego", "ref": "L-50", "shop": "toys", "source": "survey"}}, {"type": "node", "id": 5304582622, "lat": 40.479856, "lon": -3.705707, "tags": {"level": "0", "name": "Eureka Kids", "ref": "L-91", "shop": "toys", "source": "survey"}}, {"type": "node", "id": 5350251729, "lat": 40.4796827, "lon": -3.7054968, "tags": {"name": "Imaginarium", "shop": "toys"}}, {"type": "node", "id": 5350260623, "lat": 40.4799783, "lon": -3.7052144, "tags": {"level": "-1", "name": "Party Fiesta", "shop": "toys"}}, {"type": "node", "id": 5350272924, "lat": 40.4794534, "lon": -3.7065095, "tags": {"name": "Disney", "shop": "toys"}}, {"type": "node", "id": 5358841803, "lat": 40.4295441, "lon": -3.7028097, "tags": {"addr:city": "Madrid", "addr:housenumber": "111", "addr:postcode": "28010", "addr:street": "Calle de Fuencarral", "contact:phone": "+34 914450047", "contact:website": "https://www.eurekakids.es/", "name": "Eurekakids", "shop": "toys"}}, {"type": "node", "id": 5407227095, "lat": 40.4263619, "lon": -3.6940126, "tags": {"addr:city": "Madrid", "addr:housenumber": "26", "addr:postcode": "28004", "addr:street": "Calle de Argensola", "name": "Ofelia", "shop": "toys", "wheelchair": "no"}}, {"type": "node", "id": 5642549249, "lat": 40.4431923, "lon": -3.6788089, "tags": {"addr:city": "Madrid", "addr:housenumber": "133", "addr:postcode": "28002", "addr:street": "Calle del Pr\u00edncipe de Vergara", "contact:phone": "+34 281 71 18", "name": "Dideco", "shop": "toys"}}, {"type": "node", "id": 5642551945, "lat": 40.4387425, "lon": -3.7107478, "tags": {"addr:housenumber": "29", "addr:postcode": "28003", "addr:street": "Calle de Cea Berm\u00fadez", "contact:phone": "+34 91 826 20 26", "name": "Dideco", "shop": "toys", "wheelchair": "no"}}, {"type": "node", "id": 5782146053, "lat": 40.4210995, "lon": -3.7041013, "tags": {"addr:housenumber": "24", "addr:postcode": "28004", "addr:street": "Calle del Desenga\u00f1o", "name": "Model Reyna", "opening_hours": "Mo-Sa 10:00-14:00", "phone": "+34 915211165", "shop": "toys", "website": "http://modelreyna.com"}}, {"type": "node", "id": 5782146253, "lat": 40.4340119, "lon": -3.7001104, "tags": {"addr:housenumber": "27", "addr:postcode": "28010", "addr:street": "Calle de Juan de Austria", "name": "Azor Modelismo", "opening_hours": "Mo-Fr 10:00-14:00", "phone": "+34 914453005", "shop": "toys", "website": "http://azormodelismo.com", "wheelchair": "no"}}, {"type": "node", "id": 5838658087, "lat": 40.4243405, "lon": -3.6698129, "tags": {"name": "Brick Bang", "shop": "toys"}}, {"type": "node", "id": 6239846080, "lat": 40.4795999, "lon": -3.7057697, "tags": {"name": "Imaginarium", "shop": "toys"}}, {"type": "node", "id": 6257675087, "lat": 40.4247876, "lon": -3.6951937, "tags": {"addr:city": "Madrid", "addr:housenumber": "2", "addr:postcode": "28004", "addr:street": "Calle de Argensola", "name": "Circo Kids", "shop": "toys"}}, {"type": "node", "id": 6266243875, "lat": 40.4349878, "lon": -3.6424384, "tags": {"addr:city": "Madrid", "addr:country": "ES", "addr:housenumber": "4", "addr:postcode": "28017", "addr:street": "Calle de Am\u00f3s de Escalante", "contact:phone": "+34 91 572 07 55", "contact:website": "http://www.partytuyyo.com", "name": "Party tu y yo", "shop": "toys"}}, {"type": "node", "id": 6336187133, "lat": 40.4409626, "lon": -3.6711478, "tags": {"name": "Super Juguete", "shop": "toys"}}, {"type": "node", "id": 6461244100, "lat": 40.3941945, "lon": -3.7220317, "tags": {"name": "Juguetes MIB", "shop": "toys", "wheelchair": "no"}}, {"type": "node", "id": 6556361571, "lat": 40.4785663, "lon": -3.704736, "tags": {"addr:city": "Madrid", "addr:housenumber": "6", "addr:postcode": "28029", "addr:street": "Plaza de Mondariz", "email": "hola@cucutoys.es", "internet_access": "wlan", "name": "Cucutoys", "opening_hours": "Mo-Fr 10:00-14:00,16:00-19:00", "operator": "Resume Next, SL", "payment:app": "yes", "payment:contactless": "yes", "payment:credit_cards": "yes", "payment:debit_cards": "yes", "payment:mastercard": "yes", "payment:visa": "yes", "payment:visa_electron": "yes", "phone": "+34 911690738", "shop": "toys", "website": "https://cucutoys.es"}}, {"type": "node", "id": 6585835601, "lat": 40.4016507, "lon": -3.6605443, "tags": {"addr:city": "Madrid", "addr:country": "ES", "addr:housenumber": "25", "addr:postcode": "28038", "addr:street": "Calle de la Sierra Toledana", "name": "Empiezadores", "shop": "toys", "website": "https://www.empiezadores.com/"}}, {"type": "node", "id": 6897985386, "lat": 40.422477, "lon": -3.6812741, "tags": {"addr:housenumber": "113", "addr:postcode": "28009", "addr:street": "Calle de Alcal\u00e1", "email": "info@donjuego.es", "name": "Don Juego", "opening_hours": "Mo-Sa 10:00-21:00; Su 11:00-15:00", "phone": "+34914353724;+34 914 314 349", "shop": "toys", "website": "https://www.donjuego.es/"}}, {"type": "node", "id": 6897985387, "lat": 40.4235811, "lon": -3.6819182, "tags": {"addr:housenumber": "42", "addr:postcode": "28009", "addr:street": "Calle de Jorge Juan", "email": "cuartodejuegos@cuartodejuegos.es", "name": "Cuarto de juegos", "opening_hours": "Mo-Fr 10:00-20:30; Sa-Su 10:30-14:00, 17:00-20:00", "phone": "+34 91 435 00 99", "shop": "toys", "website": "https://www.cuartodejuegos.es/"}}, {"type": "node", "id": 7041933588, "lat": 40.3686181, "lon": -3.5987758, "tags": {"name": "Juguetes Poly", "shop": "toys", "source": "survey"}}, {"type": "node", "id": 7131719255, "lat": 40.3959946, "lon": -3.666495, "tags": {"addr:city": "Madrid", "addr:housenumber": "2", "addr:postcode": "28053", "addr:street": "Calle de las Lomas de Horcajo", "name": "Juguetes Fantas\u00eda", "shop": "toys", "website": "https://juguetesfantasia.com"}}, {"type": "node", "id": 7131719257, "lat": 40.3960625, "lon": -3.6651981, "tags": {"addr:city": "Madrid", "addr:housenumber": "56", "addr:postcode": "28053", "addr:street": "Avenida de la Albufera", "name": "Juguetes Fantas\u00eda", "shop": "toys"}}, {"type": "node", "id": 7165447186, "lat": 40.434554, "lon": -3.6948037, "tags": {"name": "Hola Caracola", "shop": "toys"}}, {"type": "node", "id": 7165540985, "lat": 40.4324009, "lon": -3.6773924, "tags": {"addr:housenumber": "42", "addr:street": "Calle de Juan Bravo", "brand": "Juguettos", "brand:wikidata": "Q105339592", "name": "Juguettos", "shop": "toys"}}, {"type": "node", "id": 7165540986, "lat": 40.3904892, "lon": -3.7015615, "tags": {"addr:city": "Madrid", "addr:country": "ES", "addr:housenumber": "109", "addr:postcode": "28026", "addr:street": "Calle de Antonio L\u00f3pez", "brand": "Juguettos", "brand:wikidata": "Q105339592", "level": "0", "name": "Juguettos", "shop": "toys"}}, {"type": "node", "id": 7165553085, "lat": 40.4213226, "lon": -3.7200772, "tags": {"addr:housenumber": "2", "addr:street": "Paseo de la Florida", "level": "0", "name": "Poly", "shop": "toys", "wheelchair": "yes"}}, {"type": "node", "id": 7165569185, "lat": 40.4137798, "lon": -3.6970442, "tags": {"name": "Kamchatka", "shop": "toys", "survey:date": "2022-07-23"}}, {"type": "node", "id": 7168562385, "lat": 40.4321401, "lon": -3.6870755, "tags": {"name": "Poly", "shop": "toys"}}, {"type": "node", "id": 7170743486, "lat": 40.4339196, "lon": -3.6459271, "tags": {"name": "Poli", "shop": "toys"}}, {"type": "node", "id": 7170750585, "lat": 40.4180821, "lon": -3.6220834, "tags": {"name": "Poly", "shop": "toys"}}, {"type": "node", "id": 7170750587, "lat": 40.3811644, "lon": -3.6628697, "tags": {"name": "Poly", "shop": "toys"}}, {"type": "node", "id": 7170775585, "lat": 40.4598495, "lon": -3.6994571, "tags": {"name": "Poly", "shop": "toys"}}, {"type": "node", "id": 7170778785, "lat": 40.4807927, "lon": -3.7057589, "tags": {"level": "-1", "name": "Poly", "shop": "toys"}}, {"type": "node", "id": 7181896985, "lat": 40.4190372, "lon": -3.6759352, "tags": {"name": "Super jugete", "shop": "toys"}}, {"type": "node", "id": 8158857811, "lat": 40.4781909, "lon": -3.7043854, "tags": {"name": "Generaci\u00f3n X - Ginzo", "shop": "toys"}}, {"type": "node", "id": 8439724168, "lat": 40.4069218, "lon": -3.669248, "tags": {"name": "Juguetes Mib", "shop": "toys", "wheelchair": "yes"}}, {"type": "node", "id": 9067023476, "lat": 40.3687076, "lon": -3.5986802, "tags": {"level": "0", "name": "Eureka Kids", "opening_hours": "Mo-Su 10:00-22:00", "phone": "+34 916 22 69 36", "shop": "toys", "source": "survey", "website": "https://www.eurekakids.es/"}}, {"type": "node", "id": 9443076699, "lat": 40.3870707, "lon": -3.7336832, "tags": {"name": "Mi Jugueter\u00eda", "shop": "toys", "wheelchair": "no"}}, {"type": "node", "id": 9443076707, "lat": 40.3875823, "lon": -3.7334879, "tags": {"name": "Jugueter\u00eda \u00c1ngel", "shop": "toys"}}, {"type": "node", "id": 10013850682, "lat": 40.3708989, "lon": -3.6437474, "tags": {"name": "Liquidaci\u00f3n de juguetes", "shop": "toys"}}, {"type": "node", "id": 10126266814, "lat": 40.3754956, "lon": -3.7527464, "tags": {"brand": "Lego", "brand:wikidata": "Q1063455", "name": "Lego", "opening_hours": "Mo-Fr 10:00-19:30; Sa 11:00-14:00", "shop": "toys", "wheelchair": "yes"}}, {"type": "node", "id": 10210520948, "lat": 40.4591092, "lon": -3.7105879, "tags": {"name": "Mu\u00f1ecos realistas Reborn", "shop": "toys"}}, {"type": "node", "id": 10240235956, "lat": 40.3791643, "lon": -3.7794134, "tags": {"name": "Bicos de Bichos", "shop": "toys"}}, {"type": "way", "id": 289295109, "nodes": [2928386060, 2928386058, 2928386057, 2928386056, 4309734475, 2928386061, 4309734476, 2928386060], "tags": {"addr:city": "Madrid", "addr:country": "ES", "addr:housenumber": "36", "addr:postcode": "28034", "addr:street": "Calle de Xaudar\u00f3", "building": "commercial", "email": "dideco.xaudaro@dideco.es", "name": "Dideco", "phone": "+34 91 358 0423", "shop": "toys", "website": "https://www.dideco.es/"}}, {"type": "way", "id": 350124161, "nodes": [3557978299, 3558739650, 3558739634, 3557978057, 3557978056, 3557978084, 3557978297, 3557978299], "tags": {"addr:city": "Madrid", "addr:country": "ES", "addr:housenumber": "17", "addr:postcode": "28027", "addr:street": "Calle del Arzobispo Cos", "building": "commercial", "building:levels": "1", "name": "Dideco", "shop": "toys"}}]}